{
    "woonzorgen":[
  {
    "fid": "0",
    "straat": "Francisco Ferrelaan",
    "huisnummer": "273",
    "postcode": "9000",
    "gemeente": "Gent",
    "naam": "Bloemekenswijk",
    "gentid": "club02"
  },
  {
    "fid": "1",
    "straat": "Bassijnstraat",
    "huisnummer": "0",
    "postcode": "9050",
    "gemeente": "Ledeberg",
    "naam": "Gentbrugge Bassijn",
    "gentid": "club03"
  },
   {
    "fid": "2",
    "straat": "Robinahof",
    "huisnummer": "20",
    "postcode": "9050",
    "gemeente": "Gentbrugge",
    "naam": "Gentbrugge  Robinia",
    "gentid": "club04"
  },
   {
    "fid": "3",
    "straat": "Jules de Saint-Genoisstraat",
    "huisnummer": "101",
    "postcode": "9050",
    "gemeente": "Gentbrugge",
    "naam": "Gentbrugge De Porre",
    "gentid": "club05"
  },
  {
    "fid": "4",
    "straat": "Patijntjesstraat",
    "huisnummer": "62",
    "postcode": "9000",
    "gemeente": "Gent",
    "naam": "Handbalstraat",
    "gentid": "club06"
  },
    {
    "fid": "5",
    "straat": "Jan Yoensstraat",
    "huisnummer": "126",
    "postcode": "9000",
    "gemeente": "Gent",
    "naam": "Jan Yoens",
    "gentid": "club07"
  },
    {
    "fid": "6",
    "straat": "Hundelgemsesteenweg",
    "huisnummer": "2",
    "postcode": "9050",
    "gemeente": "Gentbrugge",
    "naam": "Ledeberg",
    "gentid": "club08"
  },
    {
    "fid": "7",
    "straat": "Breendonkstraat",
    "huisnummer": "1",
    "postcode": "9000",
    "gemeente": "Gent",
    "naam": "Malem",
    "gentid": "club09"
  },
    {
    "fid": "8",
    "straat": "PatijnKasteeldreeftjesstraat",
    "huisnummer": "6",
    "postcode": "9030",
    "gemeente": "Mariakerke",
    "naam": "Claeys-Brouaert",
    "gentid": "club10"
  },
    {
    "fid": "9",
    "straat": "Rerum Novarumplein",
    "huisnummer": "0",
    "postcode": "9000",
    "gemeente": "Gent",
    "naam": "Nieuw Gent",
    "gentid": "club12"
  },
    {
    "fid": "10",
    "straat": "Gasthuisstraat",
    "huisnummer": "0",
    "postcode": "9041",
    "gemeente": "Oostakker",
    "naam": "Oostakker",
    "gentid": "club13"
  },
    {
    "fid": "13",
    "straat": "Kaatsspelplein",
    "huisnummer": "8",
    "postcode": "9000",
    "gemeente": "Gent",
    "naam": "Patershol",
    "gentid": "club16"
  },
    {
    "fid": "14",
    "straat": "Roerstraat",
    "huisnummer": "5",
    "postcode": "9000",
    "gemeente": "Gent",
    "naam": "Roerstraat",
    "gentid": "club17"
  },
    {
    "fid": "15",
    "straat": "Achterstraat",
    "huisnummer": "20",
    "postcode": "9040",
    "gemeente": "Sint-Amandsberg",
    "naam": "Azalea",
    "gentid": "club18"
  },
    {
    "fid": "16",
    "straat": "Krekelberg",
    "huisnummer": "18",
    "postcode": "9040",
    "gemeente": "Sint-Amandsberg",
    "naam": "Krekelberg",
    "gentid": "club19"
  },
    {
    "fid": "17",
    "straat": "Antwerpsesteenweg",
    "huisnummer": "763",
    "postcode": "9040",
    "gemeente": "Sint-Amandsberg",
    "naam": "Oude bareel",
    "gentid": "club20"
  },
    {
    "fid": "18",
    "straat": "Biest",
    "huisnummer": "1",
    "postcode": "9040",
    "gemeente": "Sint-Amandsberg",
    "naam": "Ter Biest",
    "gentid": "club21"
  },
      {
    "fid": "19",
    "straat": "Antoon Catriestraat",
    "huisnummer": "2",
    "postcode": "9031",
    "gemeente": "Drongen",
    "naam": "SC Drongen",
    "gentid": "club22"
  },
      {
    "fid": "20",
    "straat": "Pastorijdreef",
    "huisnummer": "6",
    "postcode": "9051",
    "gemeente": "Sint-Denijs-Westrem",
    "naam": "STDenijsWestrem",
    "gentid": "club23"
  },
       {
    "fid": "21",
    "straat": "Verenigde-Natienlaan",
    "huisnummer": "2",
    "postcode": "9031",
    "gemeente": "Drongen",
    "naam": "Watersportbaan",
    "gentid": "club25"
  },
      {
    "fid": "22",
    "straat": "Sint Markoenstraat",
    "huisnummer": "6",
    "postcode": "9032",
    "gemeente": "Wondelgem",
    "naam": "Wondelgem",
    "gentid": "club26"
  },
       {
    "fid": "23",
    "straat": "Sint-Kruis-Winkeldorp",
    "huisnummer": "17",
    "postcode": "9031",
    "gemeente": "Sint-Kruis-Winkel",
    "naam": "Sint-Kruis-Winkel",
    "gentid": "club27"
  }
]
}

